[
    {
        "Altitude(m)": 604221.2277441204,
        "Argument of Periapsis(deg)": 0.0,
        "Eccentricity": 0.0,
        "Inclination(deg)": 60.0,
        "Latitude(deg)": 14.117379392594742,
        "Longitude(deg)": 118.33415865891432,
        "Mean Anomaly(deg)": 16.363600000000012,
        "RAAN(deg)": 210.0,
        "Satellite Name": "Test1 925",
        "Satellite Number": 925,
        "Semi-Major Axis(m)": 6980739.136638005,
        "Time(s)": 0
    },
    {
        "Altitude(m)": 604235.3694485193,
        "Argument of Periapsis(deg)": 0.00010418945913296404,
        "Eccentricity": 0.0,
        "Inclination(deg)": 60.0,
        "Latitude(deg)": 14.651776049022779,
        "Longitude(deg)": 118.62260596884026,
        "Mean Anomaly(deg)": 16.983706145461838,
        "RAAN(deg)": 209.99957995086027,
        "Satellite Name": "Test1 925",
        "Satellite Number": 925,
        "Semi-Major Axis(m)": 6980739.136638005,
        "Time(s)": 10
    }
]